[{"alpha3":"ISL","alpha2":"IS","numeric":"352","name":"Iceland","name_ja":"アイスランド","area":"北ヨーロッパ"},{"alpha3":"IRL","alpha2":"IE","numeric":"372","name":"Ireland","name_ja":"アイルランド","area":"西ヨーロッパ"},{"alpha3":"AZE","alpha2":"AZ","numeric":"31","name":"Azerbaijan","name_ja":"アゼルバイジャン","area":"東ヨーロッパ"},{"alpha3":"AFG","alpha2":"AF","numeric":"4","name":"Afghanistan","name_ja":"アフガニスタン","area":"中東"},{"alpha3":"USA","alpha2":"US","numeric":"840","name":"United States of America","name_ja":"アメリカ合衆国","area":"北アメリカ"},{"alpha3":"VIR","alpha2":"VI","numeric":"850","name":"Virgin Islands (U.S.)","name_ja":"アメリカ領ヴァージン諸島","area":"中央アメリカ"},{"alpha3":"ASM","alpha2":"AS","numeric":"16","name":"American Samoa","name_ja":"アメリカ領サモア","area":"オセアニア"},{"alpha3":"ARE","alpha2":"AE","numeric":"784","name":"United Arab Emirates","name_ja":"アラブ首長国連邦","area":"中東"},{"alpha3":"DZA","alpha2":"DZ","numeric":"12","name":"Algeria","name_ja":"アルジェリア","area":"北アフリカ"},{"alpha3":"ARG","alpha2":"AR","numeric":"32","name":"Argentina","name_ja":"アルゼンチン","area":"南アメリカ"},{"alpha3":"ABW","alpha2":"AW","numeric":"533","name":"Aruba","name_ja":"アルバ","area":"中央アメリカ"},{"alpha3":"ALB","alpha2":"AL","numeric":"8","name":"Albania","name_ja":"アルバニア","area":"東ヨーロッパ"},{"alpha3":"ARM","alpha2":"AM","numeric":"51","name":"Armenia","name_ja":"アルメニア","area":"東ヨーロッパ"},{"alpha3":"AIA","alpha2":"AI","numeric":"660","name":"Anguilla","name_ja":"アンギラ","area":"中央アメリカ"},{"alpha3":"AGO","alpha2":"AO","numeric":"24","name":"Angola","name_ja":"アンゴラ","area":"南アフリカ"},{"alpha3":"ATG","alpha2":"AG","numeric":"28","name":"Antigua and Barbuda","name_ja":"アンティグア・バーブーダ","area":"中央アメリカ"},{"alpha3":"AND","alpha2":"AD","numeric":"20","name":"Andorra","name_ja":"アンドラ","area":"西ヨーロッパ"},{"alpha3":"YEM","alpha2":"YE","numeric":"887","name":"Yemen","name_ja":"イエメン","area":"中東"},{"alpha3":"GBR","alpha2":"GB","numeric":"826","name":"United Kingdom of Great Britain and Northern Ireland","name_ja":"イギリス","area":"西ヨーロッパ"},{"alpha3":"IOT","alpha2":"IO","numeric":"86","name":"British Indian Ocean Territory","name_ja":"イギリス領インド洋地域","area":"インド洋地域"},{"alpha3":"VGB","alpha2":"VG","numeric":"92","name":"Virgin Islands (British)","name_ja":"イギリス領ヴァージン諸島","area":"中央アメリカ"},{"alpha3":"ISR","alpha2":"IL","numeric":"376","name":"Israel","name_ja":"イスラエル","area":"中東"},{"alpha3":"ITA","alpha2":"IT","numeric":"380","name":"Italy","name_ja":"イタリア","area":"西ヨーロッパ"},{"alpha3":"IRQ","alpha2":"IQ","numeric":"368","name":"Iraq","name_ja":"イラク","area":"中東"},{"alpha3":"IRN","alpha2":"IR","numeric":"364","name":"Iran (Islamic Republic of)","name_ja":"イラン・イスラム共和国","area":"中東"},{"alpha3":"IND","alpha2":"IN","numeric":"356","name":"India","name_ja":"インド","area":"南アジア"},{"alpha3":"IDN","alpha2":"ID","numeric":"360","name":"Indonesia","name_ja":"インドネシア","area":"東南アジア"},{"alpha3":"WLF","alpha2":"WF","numeric":"876","name":"Wallis and Futuna","name_ja":"ウォリス・フツナ","area":"オセアニア"},{"alpha3":"UGA","alpha2":"UG","numeric":"800","name":"Uganda","name_ja":"ウガンダ","area":"中央アフリカ"},{"alpha3":"UKR","alpha2":"UA","numeric":"804","name":"Ukraine","name_ja":"ウクライナ","area":"東ヨーロッパ"},{"alpha3":"UZB","alpha2":"UZ","numeric":"860","name":"Uzbekistan","name_ja":"ウズベキスタン","area":"中央アジア"},{"alpha3":"URY","alpha2":"UY","numeric":"858","name":"Uruguay","name_ja":"ウルグアイ","area":"南アメリカ"},{"alpha3":"ECU","alpha2":"EC","numeric":"218","name":"Ecuador","name_ja":"エクアドル","area":"南アメリカ"},{"alpha3":"EGY","alpha2":"EG","numeric":"818","name":"Egypt","name_ja":"エジプト","area":"北アフリカ"},{"alpha3":"EST","alpha2":"EE","numeric":"233","name":"Estonia","name_ja":"エストニア","area":"東ヨーロッパ"},{"alpha3":"SWZ","alpha2":"SZ","numeric":"748","name":"Eswatini","name_ja":"エスワティニ","area":"南アフリカ"},{"alpha3":"ETH","alpha2":"ET","numeric":"231","name":"Ethiopia","name_ja":"エチオピア","area":"東アフリカ"},{"alpha3":"ERI","alpha2":"ER","numeric":"232","name":"Eritrea","name_ja":"エリトリア","area":"東アフリカ"},{"alpha3":"SLV","alpha2":"SV","numeric":"222","name":"El Salvador","name_ja":"エルサルバドル","area":"中央アメリカ"},{"alpha3":"AUS","alpha2":"AU","numeric":"36","name":"Australia","name_ja":"オーストラリア","area":"オセアニア"},{"alpha3":"AUT","alpha2":"AT","numeric":"40","name":"Austria","name_ja":"オーストリア","area":"東ヨーロッパ"},{"alpha3":"ALA","alpha2":"AX","numeric":"248","name":"Åland Islands","name_ja":"オーランド諸島","area":"北ヨーロッパ"},{"alpha3":"OMN","alpha2":"OM","numeric":"512","name":"Oman","name_ja":"オマーン","area":"中東"},{"alpha3":"NLD","alpha2":"NL","numeric":"528","name":"Netherlands","name_ja":"オランダ","area":"西ヨーロッパ"},{"alpha3":"GHA","alpha2":"GH","numeric":"288","name":"Ghana","name_ja":"ガーナ","area":"西アフリカ"},{"alpha3":"CPV","alpha2":"CV","numeric":"132","name":"Cabo Verde","name_ja":"カーボベルデ","area":"西アフリカ"},{"alpha3":"GGY","alpha2":"GG","numeric":"831","name":"Guernsey","name_ja":"ガーンジー","area":"西ヨーロッパ"},{"alpha3":"GUY","alpha2":"GY","numeric":"328","name":"Guyana","name_ja":"ガイアナ","area":"南アメリカ"},{"alpha3":"KAZ","alpha2":"KZ","numeric":"398","name":"Kazakhstan","name_ja":"カザフスタン","area":"中央アジア"},{"alpha3":"QAT","alpha2":"QA","numeric":"634","name":"Qatar","name_ja":"カタール","area":"中東"},{"alpha3":"UMI","alpha2":"UM","numeric":"581","name":"United States Minor Outlying Islands","name_ja":"合衆国領有小離島","area":"オセアニア"},{"alpha3":"CAN","alpha2":"CA","numeric":"124","name":"Canada","name_ja":"カナダ","area":"北アメリカ"},{"alpha3":"GAB","alpha2":"GA","numeric":"266","name":"Gabon","name_ja":"ガボン","area":"中央アフリカ"},{"alpha3":"CMR","alpha2":"CM","numeric":"120","name":"Cameroon","name_ja":"カメルーン","area":"中央アフリカ"},{"alpha3":"GMB","alpha2":"GM","numeric":"270","name":"Gambia","name_ja":"ガンビア","area":"西アフリカ"},{"alpha3":"KHM","alpha2":"KH","numeric":"116","name":"Cambodia","name_ja":"カンボジア","area":"東南アジア"},{"alpha3":"MKD","alpha2":"MK","numeric":"807","name":"North Macedonia","name_ja":"北マケドニア","area":"東ヨーロッパ"},{"alpha3":"MNP","alpha2":"MP","numeric":"580","name":"Northern Mariana Islands","name_ja":"北マリアナ諸島","area":"オセアニア"},{"alpha3":"GIN","alpha2":"GN","numeric":"324","name":"Guinea","name_ja":"ギニア","area":"西アフリカ"},{"alpha3":"GNB","alpha2":"GW","numeric":"624","name":"Guinea-Bissau","name_ja":"ギニアビサウ","area":"西アフリカ"},{"alpha3":"CYP","alpha2":"CY","numeric":"196","name":"Cyprus","name_ja":"キプロス","area":"地中海地域"},{"alpha3":"CUB","alpha2":"CU","numeric":"192","name":"Cuba","name_ja":"キューバ","area":"中央アメリカ"},{"alpha3":"CUW","alpha2":"CW","numeric":"531","name":"Curaçao","name_ja":"キュラソー","area":"中央アメリカ"},{"alpha3":"GRC","alpha2":"GR","numeric":"300","name":"Greece","name_ja":"ギリシャ","area":"西ヨーロッパ"},{"alpha3":"KIR","alpha2":"KI","numeric":"296","name":"Kiribati","name_ja":"キリバス","area":"オセアニア"},{"alpha3":"KGZ","alpha2":"KG","numeric":"417","name":"Kyrgyzstan","name_ja":"キルギス","area":"中央アジア"},{"alpha3":"GTM","alpha2":"GT","numeric":"320","name":"Guatemala","name_ja":"グアテマラ","area":"中央アメリカ"},{"alpha3":"GLP","alpha2":"GP","numeric":"312","name":"Guadeloupe","name_ja":"グアドループ","area":"中央アメリカ"},{"alpha3":"GUM","alpha2":"GU","numeric":"316","name":"Guam","name_ja":"グアム","area":"オセアニア"},{"alpha3":"KWT","alpha2":"KW","numeric":"414","name":"Kuwait","name_ja":"クウェート","area":"中東"},{"alpha3":"COK","alpha2":"CK","numeric":"184","name":"Cook Islands","name_ja":"クック諸島","area":"オセアニア"},{"alpha3":"GRL","alpha2":"GL","numeric":"304","name":"Greenland","name_ja":"グリーンランド","area":"北ヨーロッパ"},{"alpha3":"CXR","alpha2":"CX","numeric":"162","name":"Christmas Island","name_ja":"クリスマス島","area":"オセアニア"},{"alpha3":"GRD","alpha2":"GD","numeric":"308","name":"Grenada","name_ja":"グレナダ","area":"中央アメリカ"},{"alpha3":"HRV","alpha2":"HR","numeric":"191","name":"Croatia","name_ja":"クロアチア","area":"東ヨーロッパ"},{"alpha3":"CYM","alpha2":"KY","numeric":"136","name":"Cayman Islands","name_ja":"ケイマン諸島","area":"中央アメリカ"},{"alpha3":"KEN","alpha2":"KE","numeric":"404","name":"Kenya","name_ja":"ケニア","area":"東アフリカ"},{"alpha3":"CIV","alpha2":"CI","numeric":"384","name":"Côte d'Ivoire","name_ja":"コートジボワール","area":"西アフリカ"},{"alpha3":"CCK","alpha2":"CC","numeric":"166","name":"Cocos (Keeling) Islands","name_ja":"ココス（キーリング）諸島","area":"インド洋地域"},{"alpha3":"CRI","alpha2":"CR","numeric":"188","name":"Costa Rica","name_ja":"コスタリカ","area":"中央アメリカ"},{"alpha3":"COM","alpha2":"KM","numeric":"174","name":"Comoros","name_ja":"コモロ","area":"インド洋地域"},{"alpha3":"COL","alpha2":"CO","numeric":"170","name":"Colombia","name_ja":"コロンビア","area":"南アメリカ"},{"alpha3":"COG","alpha2":"CG","numeric":"178","name":"Congo","name_ja":"コンゴ共和国","area":"中央アフリカ"},{"alpha3":"COD","alpha2":"CD","numeric":"180","name":"Congo, Democratic Republic of the","name_ja":"コンゴ民主共和国","area":"中央アフリカ"},{"alpha3":"SAU","alpha2":"SA","numeric":"682","name":"Saudi Arabia","name_ja":"サウジアラビア","area":"中東"},{"alpha3":"SGS","alpha2":"GS","numeric":"239","name":"South Georgia and the South Sandwich Islands","name_ja":"サウスジョージア・サウスサンドウィッチ諸島","area":"南アメリカ"},{"alpha3":"WSM","alpha2":"WS","numeric":"882","name":"Samoa","name_ja":"サモア","area":"オセアニア"},{"alpha3":"STP","alpha2":"ST","numeric":"678","name":"Sao Tome and Principe","name_ja":"サントメ・プリンシペ","area":"中央アフリカ"},{"alpha3":"BLM","alpha2":"BL","numeric":"652","name":"Saint Barthélemy","name_ja":"サン・バルテルミー","area":"中央アメリカ"},{"alpha3":"ZMB","alpha2":"ZM","numeric":"894","name":"Zambia","name_ja":"ザンビア","area":"南アフリカ"},{"alpha3":"SPM","alpha2":"PM","numeric":"666","name":"Saint Pierre and Miquelon","name_ja":"サンピエール島・ミクロン島","area":"北アメリカ"},{"alpha3":"SMR","alpha2":"SM","numeric":"674","name":"San Marino","name_ja":"サンマリノ","area":"西ヨーロッパ"},{"alpha3":"MAF","alpha2":"MF","numeric":"663","name":"Saint Martin (French part)","name_ja":"サン・マルタン（フランス領）","area":"中央アメリカ"},{"alpha3":"SLE","alpha2":"SL","numeric":"694","name":"Sierra Leone","name_ja":"シエラレオネ","area":"西アフリカ"},{"alpha3":"DJI","alpha2":"DJ","numeric":"262","name":"Djibouti","name_ja":"ジブチ","area":"東アフリカ"},{"alpha3":"GIB","alpha2":"GI","numeric":"292","name":"Gibraltar","name_ja":"ジブラルタル","area":"西ヨーロッパ"},{"alpha3":"JEY","alpha2":"JE","numeric":"832","name":"Jersey","name_ja":"ジャージー","area":"西ヨーロッパ"},{"alpha3":"JAM","alpha2":"JM","numeric":"388","name":"Jamaica","name_ja":"ジャマイカ","area":"中央アメリカ"},{"alpha3":"GEO","alpha2":"GE","numeric":"268","name":"Georgia","name_ja":"ジョージア","area":"東ヨーロッパ"},{"alpha3":"SYR","alpha2":"SY","numeric":"760","name":"Syrian Arab Republic","name_ja":"シリア・アラブ共和国","area":"中東"},{"alpha3":"SGP","alpha2":"SG","numeric":"702","name":"Singapore","name_ja":"シンガポール","area":"東南アジア"},{"alpha3":"SXM","alpha2":"SX","numeric":"534","name":"Sint Maarten (Dutch part)","name_ja":"シント・マールテン（オランダ領）","area":"中央アメリカ"},{"alpha3":"ZWE","alpha2":"ZW","numeric":"716","name":"Zimbabwe","name_ja":"ジンバブエ","area":"南アフリカ"},{"alpha3":"CHE","alpha2":"CH","numeric":"756","name":"Switzerland","name_ja":"スイス","area":"西ヨーロッパ"},{"alpha3":"SWE","alpha2":"SE","numeric":"752","name":"Sweden","name_ja":"スウェーデン","area":"北ヨーロッパ"},{"alpha3":"SDN","alpha2":"SD","numeric":"729","name":"Sudan","name_ja":"スーダン","area":"東アフリカ"},{"alpha3":"SJM","alpha2":"SJ","numeric":"744","name":"Svalbard and Jan Mayen","name_ja":"スヴァールバル諸島およびヤンマイエン島","area":"北ヨーロッパ"},{"alpha3":"ESP","alpha2":"ES","numeric":"724","name":"Spain","name_ja":"スペイン","area":"西ヨーロッパ"},{"alpha3":"SUR","alpha2":"SR","numeric":"740","name":"Suriname","name_ja":"スリナム","area":"南アメリカ"},{"alpha3":"LKA","alpha2":"LK","numeric":"144","name":"Sri Lanka","name_ja":"スリランカ","area":"南アジア"},{"alpha3":"SVK","alpha2":"SK","numeric":"703","name":"Slovakia","name_ja":"スロバキア","area":"東ヨーロッパ"},{"alpha3":"SVN","alpha2":"SI","numeric":"705","name":"Slovenia","name_ja":"スロベニア","area":"東ヨーロッパ"},{"alpha3":"SYC","alpha2":"SC","numeric":"690","name":"Seychelles","name_ja":"セーシェル","area":"インド洋地域"},{"alpha3":"GNQ","alpha2":"GQ","numeric":"226","name":"Equatorial Guinea","name_ja":"赤道ギニア","area":"中央アフリカ"},{"alpha3":"SEN","alpha2":"SN","numeric":"686","name":"Senegal","name_ja":"セネガル","area":"西アフリカ"},{"alpha3":"SRB","alpha2":"RS","numeric":"688","name":"Serbia","name_ja":"セルビア","area":"東ヨーロッパ"},{"alpha3":"KNA","alpha2":"KN","numeric":"659","name":"Saint Kitts and Nevis","name_ja":"セントクリストファー・ネイビス","area":"中央アメリカ"},{"alpha3":"VCT","alpha2":"VC","numeric":"670","name":"Saint Vincent and the Grenadines","name_ja":"セントビンセントおよびグレナディーン諸島","area":"中央アメリカ"},{"alpha3":"SHN","alpha2":"SH","numeric":"654","name":"Saint Helena, Ascension and Tristan da Cunha","name_ja":"セントヘレナ・アセンションおよびトリスタンダクーニャ","area":"西アフリカ"},{"alpha3":"LCA","alpha2":"LC","numeric":"662","name":"Saint Lucia","name_ja":"セントルシア","area":"中央アメリカ"},{"alpha3":"SOM","alpha2":"SO","numeric":"706","name":"Somalia","name_ja":"ソマリア","area":"東アフリカ"},{"alpha3":"SLB","alpha2":"SB","numeric":"90","name":"Solomon Islands","name_ja":"ソロモン諸島","area":"オセアニア"},{"alpha3":"TCA","alpha2":"TC","numeric":"796","name":"Turks and Caicos Islands","name_ja":"タークス・カイコス諸島","area":"中央アメリカ"},{"alpha3":"THA","alpha2":"TH","numeric":"764","name":"Thailand","name_ja":"タイ","area":"東南アジア"},{"alpha3":"KOR","alpha2":"KR","numeric":"410","name":"Korea, Republic of","name_ja":"大韓民国","area":"東アジア"},{"alpha3":"TWN","alpha2":"TW","numeric":"158","name":"Taiwan, Province of China","name_ja":"台湾（中華民国）","area":"東アジア"},{"alpha3":"TJK","alpha2":"TJ","numeric":"762","name":"Tajikistan","name_ja":"タジキスタン","area":"中央アジア"},{"alpha3":"TZA","alpha2":"TZ","numeric":"834","name":"Tanzania, United Republic of","name_ja":"タンザニア","area":"東アフリカ"},{"alpha3":"CZE","alpha2":"CZ","numeric":"203","name":"Czechia","name_ja":"チェコ","area":"東ヨーロッパ"},{"alpha3":"TCD","alpha2":"TD","numeric":"148","name":"Chad","name_ja":"チャド","area":"中央アフリカ"},{"alpha3":"CAF","alpha2":"CF","numeric":"140","name":"Central African Republic","name_ja":"中央アフリカ共和国","area":"中央アフリカ"},{"alpha3":"CHN","alpha2":"CN","numeric":"156","name":"China","name_ja":"中華人民共和国","area":"東アジア"},{"alpha3":"TUN","alpha2":"TN","numeric":"788","name":"Tunisia","name_ja":"チュニジア","area":"北アフリカ"},{"alpha3":"PRK","alpha2":"KP","numeric":"408","name":"Korea, Democratic People's Republic of","name_ja":"朝鮮民主主義人民共和国","area":"東アジア"},{"alpha3":"CHL","alpha2":"CL","numeric":"152","name":"Chile","name_ja":"チリ","area":"南アメリカ"},{"alpha3":"TUV","alpha2":"TV","numeric":"798","name":"Tuvalu","name_ja":"ツバル","area":"オセアニア"},{"alpha3":"DNK","alpha2":"DK","numeric":"208","name":"Denmark","name_ja":"デンマーク","area":"北ヨーロッパ"},{"alpha3":"DEU","alpha2":"DE","numeric":"276","name":"Germany","name_ja":"ドイツ","area":"西ヨーロッパ"},{"alpha3":"TGO","alpha2":"TG","numeric":"768","name":"Togo","name_ja":"トーゴ","area":"西アフリカ"},{"alpha3":"TKL","alpha2":"TK","numeric":"772","name":"Tokelau","name_ja":"トケラウ","area":"オセアニア"},{"alpha3":"DOM","alpha2":"DO","numeric":"214","name":"Dominican Republic","name_ja":"ドミニカ共和国","area":"中央アメリカ"},{"alpha3":"DMA","alpha2":"DM","numeric":"212","name":"Dominica","name_ja":"ドミニカ国","area":"中央アメリカ"},{"alpha3":"TTO","alpha2":"TT","numeric":"780","name":"Trinidad and Tobago","name_ja":"トリニダード・トバゴ","area":"中央アメリカ"},{"alpha3":"TKM","alpha2":"TM","numeric":"795","name":"Turkmenistan","name_ja":"トルクメニスタン","area":"中央アジア"},{"alpha3":"TUR","alpha2":"TR","numeric":"792","name":"Turkey","name_ja":"トルコ","area":"中東"},{"alpha3":"TON","alpha2":"TO","numeric":"776","name":"Tonga","name_ja":"トンガ","area":"オセアニア"},{"alpha3":"NGA","alpha2":"NG","numeric":"566","name":"Nigeria","name_ja":"ナイジェリア","area":"中央アフリカ"},{"alpha3":"NRU","alpha2":"NR","numeric":"520","name":"Nauru","name_ja":"ナウル","area":"オセアニア"},{"alpha3":"NAM","alpha2":"NA","numeric":"516","name":"Namibia","name_ja":"ナミビア","area":"南アフリカ"},{"alpha3":"ATA","alpha2":"AQ","numeric":"10","name":"Antarctica","name_ja":"南極","area":"南極"},{"alpha3":"NIU","alpha2":"NU","numeric":"570","name":"Niue","name_ja":"ニウエ","area":"オセアニア"},{"alpha3":"NIC","alpha2":"NI","numeric":"558","name":"Nicaragua","name_ja":"ニカラグア","area":"中央アメリカ"},{"alpha3":"NER","alpha2":"NE","numeric":"562","name":"Niger","name_ja":"ニジェール","area":"中央アフリカ"},{"alpha3":"JPN","alpha2":"JP","numeric":"392","name":"Japan","name_ja":"日本","area":"東アジア"},{"alpha3":"ESH","alpha2":"EH","numeric":"732","name":"Western Sahara","name_ja":"西サハラ","area":"西アフリカ"},{"alpha3":"NCL","alpha2":"NC","numeric":"540","name":"New Caledonia","name_ja":"ニューカレドニア","area":"オセアニア"},{"alpha3":"NZL","alpha2":"NZ","numeric":"554","name":"New Zealand","name_ja":"ニュージーランド","area":"オセアニア"},{"alpha3":"NPL","alpha2":"NP","numeric":"524","name":"Nepal","name_ja":"ネパール","area":"南アジア"},{"alpha3":"NFK","alpha2":"NF","numeric":"574","name":"Norfolk Island","name_ja":"ノーフォーク島","area":"オセアニア"},{"alpha3":"NOR","alpha2":"NO","numeric":"578","name":"Norway","name_ja":"ノルウェー","area":"北ヨーロッパ"},{"alpha3":"HMD","alpha2":"HM","numeric":"334","name":"Heard Island and McDonald Islands","name_ja":"ハード島とマクドナルド諸島","area":"インド洋地域"},{"alpha3":"BHR","alpha2":"BH","numeric":"48","name":"Bahrain","name_ja":"バーレーン","area":"中東"},{"alpha3":"HTI","alpha2":"HT","numeric":"332","name":"Haiti","name_ja":"ハイチ","area":"中央アメリカ"},{"alpha3":"PAK","alpha2":"PK","numeric":"586","name":"Pakistan","name_ja":"パキスタン","area":"南アジア"},{"alpha3":"VAT","alpha2":"VA","numeric":"336","name":"Holy See","name_ja":"バチカン市国","area":"西ヨーロッパ"},{"alpha3":"PAN","alpha2":"PA","numeric":"591","name":"Panama","name_ja":"パナマ","area":"中央アメリカ"},{"alpha3":"VUT","alpha2":"VU","numeric":"548","name":"Vanuatu","name_ja":"バヌアツ","area":"オセアニア"},{"alpha3":"BHS","alpha2":"BS","numeric":"44","name":"Bahamas","name_ja":"バハマ","area":"中央アメリカ"},{"alpha3":"PNG","alpha2":"PG","numeric":"598","name":"Papua New Guinea","name_ja":"パプアニューギニア","area":"オセアニア"},{"alpha3":"BMU","alpha2":"BM","numeric":"60","name":"Bermuda","name_ja":"バミューダ","area":"中央アメリカ"},{"alpha3":"PLW","alpha2":"PW","numeric":"585","name":"Palau","name_ja":"パラオ","area":"オセアニア"},{"alpha3":"PRY","alpha2":"PY","numeric":"600","name":"Paraguay","name_ja":"パラグアイ","area":"南アメリカ"},{"alpha3":"BRB","alpha2":"BB","numeric":"52","name":"Barbados","name_ja":"バルバドス","area":"中央アメリカ"},{"alpha3":"PSE","alpha2":"PS","numeric":"275","name":"Palestine, State of","name_ja":"パレスチナ","area":"中東"},{"alpha3":"HUN","alpha2":"HU","numeric":"348","name":"Hungary","name_ja":"ハンガリー","area":"東ヨーロッパ"},{"alpha3":"BGD","alpha2":"BD","numeric":"50","name":"Bangladesh","name_ja":"バングラデシュ","area":"南アジア"},{"alpha3":"TLS","alpha2":"TL","numeric":"626","name":"Timor-Leste","name_ja":"東ティモール","area":"東南アジア"},{"alpha3":"PCN","alpha2":"PN","numeric":"612","name":"Pitcairn","name_ja":"ピトケアン","area":"オセアニア"},{"alpha3":"FJI","alpha2":"FJ","numeric":"242","name":"Fiji","name_ja":"フィジー","area":"オセアニア"},{"alpha3":"PHL","alpha2":"PH","numeric":"608","name":"Philippines","name_ja":"フィリピン","area":"東南アジア"},{"alpha3":"FIN","alpha2":"FI","numeric":"246","name":"Finland","name_ja":"フィンランド","area":"北ヨーロッパ"},{"alpha3":"BTN","alpha2":"BT","numeric":"64","name":"Bhutan","name_ja":"ブータン","area":"南アジア"},{"alpha3":"BVT","alpha2":"BV","numeric":"74","name":"Bouvet Island","name_ja":"ブーベ島","area":"南極"},{"alpha3":"PRI","alpha2":"PR","numeric":"630","name":"Puerto Rico","name_ja":"プエルトリコ","area":"中央アメリカ"},{"alpha3":"FRO","alpha2":"FO","numeric":"234","name":"Faroe Islands","name_ja":"フェロー諸島","area":"北ヨーロッパ"},{"alpha3":"FLK","alpha2":"FK","numeric":"238","name":"Falkland Islands (Malvinas)","name_ja":"フォークランド（マルビナス）諸島","area":"南アメリカ"},{"alpha3":"BRA","alpha2":"BR","numeric":"76","name":"Brazil","name_ja":"ブラジル","area":"南アメリカ"},{"alpha3":"FRA","alpha2":"FR","numeric":"250","name":"France","name_ja":"フランス","area":"西ヨーロッパ"},{"alpha3":"GUF","alpha2":"GF","numeric":"254","name":"French Guiana","name_ja":"フランス領ギアナ","area":"南アメリカ"},{"alpha3":"PYF","alpha2":"PF","numeric":"258","name":"French Polynesia","name_ja":"フランス領ポリネシア","area":"オセアニア"},{"alpha3":"ATF","alpha2":"TF","numeric":"260","name":"French Southern Territories","name_ja":"フランス領南方・南極地域","area":"インド洋地域"},{"alpha3":"BGR","alpha2":"BG","numeric":"100","name":"Bulgaria","name_ja":"ブルガリア","area":"東ヨーロッパ"},{"alpha3":"BFA","alpha2":"BF","numeric":"854","name":"Burkina Faso","name_ja":"ブルキナファソ","area":"西アフリカ"},{"alpha3":"BRN","alpha2":"BN","numeric":"96","name":"Brunei Darussalam","name_ja":"ブルネイ・ダルサラーム","area":"東南アジア"},{"alpha3":"BDI","alpha2":"BI","numeric":"108","name":"Burundi","name_ja":"ブルンジ","area":"中央アフリカ"},{"alpha3":"VNM","alpha2":"VN","numeric":"704","name":"Viet Nam","name_ja":"ベトナム","area":"東南アジア"},{"alpha3":"BEN","alpha2":"BJ","numeric":"204","name":"Benin","name_ja":"ベナン","area":"西アフリカ"},{"alpha3":"VEN","alpha2":"VE","numeric":"862","name":"Venezuela (Bolivarian Republic of)","name_ja":"ベネズエラ・ボリバル共和国","area":"南アメリカ"},{"alpha3":"BLR","alpha2":"BY","numeric":"112","name":"Belarus","name_ja":"ベラルーシ","area":"東ヨーロッパ"},{"alpha3":"BLZ","alpha2":"BZ","numeric":"84","name":"Belize","name_ja":"ベリーズ","area":"中央アメリカ"},{"alpha3":"PER","alpha2":"PE","numeric":"604","name":"Peru","name_ja":"ペルー","area":"南アメリカ"},{"alpha3":"BEL","alpha2":"BE","numeric":"56","name":"Belgium","name_ja":"ベルギー","area":"西ヨーロッパ"},{"alpha3":"POL","alpha2":"PL","numeric":"616","name":"Poland","name_ja":"ポーランド","area":"東ヨーロッパ"},{"alpha3":"BIH","alpha2":"BA","numeric":"70","name":"Bosnia and Herzegovina","name_ja":"ボスニア・ヘルツェゴビナ","area":"東ヨーロッパ"},{"alpha3":"BWA","alpha2":"BW","numeric":"72","name":"Botswana","name_ja":"ボツワナ","area":"南アフリカ"},{"alpha3":"BES","alpha2":"BQ","numeric":"535","name":"Bonaire, Sint Eustatius and Saba","name_ja":"ボネール、シント・ユースタティウスおよびサバ","area":"中央アメリカ"},{"alpha3":"BOL","alpha2":"BO","numeric":"68","name":"Bolivia (Plurinational State of)","name_ja":"ボリビア多民族国","area":"南アメリカ"},{"alpha3":"PRT","alpha2":"PT","numeric":"620","name":"Portugal","name_ja":"ポルトガル","area":"西ヨーロッパ"},{"alpha3":"HKG","alpha2":"HK","numeric":"344","name":"Hong Kong","name_ja":"香港","area":"東アジア"},{"alpha3":"HND","alpha2":"HN","numeric":"340","name":"Honduras","name_ja":"ホンジュラス","area":"中央アメリカ"},{"alpha3":"MHL","alpha2":"MH","numeric":"584","name":"Marshall Islands","name_ja":"マーシャル諸島","area":"オセアニア"},{"alpha3":"MAC","alpha2":"MO","numeric":"446","name":"Macau","name_ja":"マカオ","area":"東アジア"},{"alpha3":"MDG","alpha2":"MG","numeric":"450","name":"Madagascar","name_ja":"マダガスカル","area":"インド洋地域"},{"alpha3":"MYT","alpha2":"YT","numeric":"175","name":"Mayotte","name_ja":"マヨット","area":"インド洋地域"},{"alpha3":"MWI","alpha2":"MW","numeric":"454","name":"Malawi","name_ja":"マラウイ","area":"南アフリカ"},{"alpha3":"MLI","alpha2":"ML","numeric":"466","name":"Mali","name_ja":"マリ","area":"西アフリカ"},{"alpha3":"MLT","alpha2":"MT","numeric":"470","name":"Malta","name_ja":"マルタ","area":"地中海地域"},{"alpha3":"MTQ","alpha2":"MQ","numeric":"474","name":"Martinique","name_ja":"マルティニーク","area":"中央アメリカ"},{"alpha3":"MYS","alpha2":"MY","numeric":"458","name":"Malaysia","name_ja":"マレーシア","area":"東南アジア"},{"alpha3":"IMN","alpha2":"IM","numeric":"833","name":"Isle of Man","name_ja":"マン島","area":"西ヨーロッパ"},{"alpha3":"FSM","alpha2":"FM","numeric":"583","name":"Micronesia (Federated States of)","name_ja":"ミクロネシア連邦","area":"オセアニア"},{"alpha3":"ZAF","alpha2":"ZA","numeric":"710","name":"South Africa","name_ja":"南アフリカ","area":"南アフリカ"},{"alpha3":"SSD","alpha2":"SS","numeric":"728","name":"South Sudan","name_ja":"南スーダン","area":"東アフリカ"},{"alpha3":"MMR","alpha2":"MM","numeric":"104","name":"Myanmar","name_ja":"ミャンマー","area":"東南アジア"},{"alpha3":"MEX","alpha2":"MX","numeric":"484","name":"Mexico","name_ja":"メキシコ","area":"中央アメリカ"},{"alpha3":"MUS","alpha2":"MU","numeric":"480","name":"Mauritius","name_ja":"モーリシャス","area":"南アフリカ"},{"alpha3":"MRT","alpha2":"MR","numeric":"478","name":"Mauritania","name_ja":"モーリタニア","area":"西アフリカ"},{"alpha3":"MOZ","alpha2":"MZ","numeric":"508","name":"Mozambique","name_ja":"モザンビーク","area":"南アフリカ"},{"alpha3":"MCO","alpha2":"MC","numeric":"492","name":"Monaco","name_ja":"モナコ","area":"西ヨーロッパ"},{"alpha3":"MDV","alpha2":"MV","numeric":"462","name":"Maldives","name_ja":"モルディブ","area":"インド洋地域"},{"alpha3":"MDA","alpha2":"MD","numeric":"498","name":"Moldova, Republic of","name_ja":"モルドバ共和国","area":"東ヨーロッパ"},{"alpha3":"MAR","alpha2":"MA","numeric":"504","name":"Morocco","name_ja":"モロッコ","area":"北アフリカ"},{"alpha3":"MNG","alpha2":"MN","numeric":"496","name":"Mongolia","name_ja":"モンゴル","area":"東アジア"},{"alpha3":"MNE","alpha2":"ME","numeric":"499","name":"Montenegro","name_ja":"モンテネグロ","area":"東ヨーロッパ"},{"alpha3":"MSR","alpha2":"MS","numeric":"500","name":"Montserrat","name_ja":"モントセラト","area":"中央アメリカ"},{"alpha3":"JOR","alpha2":"JO","numeric":"400","name":"Jordan","name_ja":"ヨルダン","area":"中東"},{"alpha3":"LAO","alpha2":"LA","numeric":"418","name":"Lao People's Democratic Republic","name_ja":"ラオス人民民主共和国","area":"東南アジア"},{"alpha3":"LVA","alpha2":"LV","numeric":"428","name":"Latvia","name_ja":"ラトビア","area":"東ヨーロッパ"},{"alpha3":"LTU","alpha2":"LT","numeric":"440","name":"Lithuania","name_ja":"リトアニア","area":"東ヨーロッパ"},{"alpha3":"LBY","alpha2":"LY","numeric":"434","name":"Libya","name_ja":"リビア","area":"北アフリカ"},{"alpha3":"LIE","alpha2":"LI","numeric":"438","name":"Liechtenstein","name_ja":"リヒテンシュタイン","area":"西ヨーロッパ"},{"alpha3":"LBR","alpha2":"LR","numeric":"430","name":"Liberia","name_ja":"リベリア","area":"西アフリカ"},{"alpha3":"ROU","alpha2":"RO","numeric":"642","name":"Romania","name_ja":"ルーマニア","area":"東ヨーロッパ"},{"alpha3":"LUX","alpha2":"LU","numeric":"442","name":"Luxembourg","name_ja":"ルクセンブルク","area":"西ヨーロッパ"},{"alpha3":"RWA","alpha2":"RW","numeric":"646","name":"Rwanda","name_ja":"ルワンダ","area":"中央アフリカ"},{"alpha3":"LSO","alpha2":"LS","numeric":"426","name":"Lesotho","name_ja":"レソト","area":"南アフリカ"},{"alpha3":"LBN","alpha2":"LB","numeric":"422","name":"Lebanon","name_ja":"レバノン","area":"中東"},{"alpha3":"REU","alpha2":"RE","numeric":"638","name":"Réunion","name_ja":"レユニオン","area":"インド洋地域"},{"alpha3":"RUS","alpha2":"RU","numeric":"643","name":"Russian Federation","name_ja":"ロシア連邦","area":"ロシア"}]